{"type": "FeatureCollection", "features": [ {"type": "Feature", "properties": {"norad_id": 49810, "name": "GSAT0224 (GALILEO 28)", "group": "gnss", "lat": 17.423424512477848, "lon": 155.06375591928054, "alt_km": 23221.433893022197, "timestamp": "2025-12-11T22:43:47.511681+00:00", "meta": {"OBJECT_NAME": "GSAT0224 (GALILEO 28)", "OBJECT_ID": "2021-116B", "EPOCH": "2025-12-10T19:26:19.690368", "MEAN_MOTION": 1.70475895, "ECCENTRICITY": 0.000393, "INCLINATION": 57.2205, "RA_OF_ASC_NODE": 346.7629, "ARG_OF_PERICENTER": 256.2791, "MEAN_ANOMALY": 284.9883, "EPHEMERIS_TYPE": 0, "CLASSIFICATION_TYPE": "U", "NORAD_CAT_ID": 49810, "ELEMENT_SET_NO": 999, "REV_AT_EPOCH": 2499, "BSTAR": 0, "MEAN_MOTION_DOT": -8.7e-07, "MEAN_MOTION_DDOT": 0}, "tle": {"line1": "1 49810U 21116B   25344.80995012 -.00000087  00000+0  00000+0 0  9999", "line2": "2 49810  57.2205 346.7629 0003930 256.2791 284.9883  1.70475895 24991"}}, "geometry": {"type": "Point", "coordinates": [155.06375591928054, 17.423424512477848]}}, {"type": "Feature", "properties": {"norad_id": 52984, "name": "COSMOS 2557 (706K)", "group": "gnss", "lat": 48.47885013653845, "lon": -6.170820173590363, "alt_km": 19150.85388191708, "timestamp": "2025-12-11T22:43:47.511692+00:00", "meta": {"OBJECT_NAME": "COSMOS 2557 (706K)", "OBJECT_ID": "2022-075A", "EPOCH": "2025-12-07T04:21:00.419904", "MEAN_MOTION": 2.13101754, "ECCENTRICITY": 0.00137049, "INCLINATION": 64.4129, "RA_OF_ASC_NODE": 321.247, "ARG_OF_PERICENTER": 276.9, "MEAN_ANOMALY": 82.939, "EPHEMERIS_TYPE": 0, "CLASSIFICATION_TYPE": "U", "NORAD_CAT_ID": 52984, "ELEMENT_SET_NO": 999, "REV_AT_EPOCH": 2662, "BSTAR": 0, "MEAN_MOTION_DOT": -5.2e-07, "MEAN_MOTION_DDOT": 0}, "tle": {"line1": "1 52984U 22075A   25341.18125486 -.00000052  00000+0  00000+0 0  9990", "line2": "2 52984  64.4129 321.2470 0013704 276.9000  82.9390  2.13101754 26625"}}, "geometry": {"type": "Point", "coordinates": [-6.170820173590363, 48.47885013653845]}}, {"type": "Feature", "properties": {"norad_id": 54031, "name": "COSMOS 2559 (707K)", "group": "gnss", "lat": -13.422863094441048, "lon": 147.73257442556653, "alt_km": 19102.04915956958, "timestamp": "2025-12-11T22:43:47.511707+00:00", "meta": {"OBJECT_NAME": "COSMOS 2559 (707K)", "OBJECT_ID": "2022-130A", "EPOCH": "2025-12-11T05:22:14.904768", "MEAN_MOTION": 2.13101319, "ECCENTRICITY": 0.00118383, "INCLINATION": 64.3831, "RA_OF_ASC_NODE": 321.1944, "ARG_OF_PERICENTER": 192.4959, "MEAN_ANOMALY": 167.4748, "EPHEMERIS_TYPE": 0, "CLASSIFICATION_TYPE": "U", "NORAD_CAT_ID": 54031, "ELEMENT_SET_NO": 999, "REV_AT_EPOCH": 2468, "BSTAR": 0, "MEAN_MOTION_DOT": -5.5e-07, "MEAN_MOTION_DDOT": 0}, "tle": {"line1": "1 54031U 22130A   25345.22378362 -.00000055  00000+0  00000+0 0  9992", "line2": "2 54031  64.3831 321.1944 0011838 192.4959 167.4748  2.13101319 24682"}}, "geometry": {"type": "Point", "coordinates": [147.73257442556653, -13.422863094441048]}}, {"type": "Feature", "properties": {"norad_id": 54377, "name": "COSMOS 2564 (761)", "group": "gnss", "lat": -40.19464268745899, "lon": 175.4169858439903, "alt_km": 19142.22855295284, "timestamp": "2025-12-11T22:43:47.511719+00:00", "meta": {"OBJECT_NAME": "COSMOS 2564 (761)", "OBJECT_ID": "2022-161A", "EPOCH": "2025-12-11T12:53:38.736096", "MEAN_MOTION": 2.13102051, "ECCENTRICITY": 0.00086147, "INCLINATION": 64.7381, "RA_OF_ASC_NODE": 198.9389, "ARG_OF_PERICENTER": 204.933, "MEAN_ANOMALY": 155.0953, "EPHEMERIS_TYPE": 0, "CLASSIFICATION_TYPE": "U", "NORAD_CAT_ID": 54377, "ELEMENT_SET_NO": 999, "REV_AT_EPOCH": 2363, "BSTAR": 0, "MEAN_MOTION_DOT": 5.6e-07, "MEAN_MOTION_DDOT": 0}, "tle": {"line1": "1 54377U 22161A   25345.53725389  .00000056  00000+0  00000+0 0  9998", "line2": "2 54377  64.7381 198.9389 0008614 204.9330 155.0953  2.13102051 23631"}}, "geometry": {"type": "Point", "coordinates": [175.4169858439903, -40.19464268745899]}}, {"type": "Feature", "properties": {"norad_id": 55268, "name": "GPS BIII-6  (PRN 28)", "group": "gnss", "lat": -23.547480114946065, "lon": 138.15810723081734, "alt_km": 20177.29027351866, "timestamp": "2025-12-11T22:43:47.511731+00:00", "meta": {"OBJECT_NAME": "GPS BIII-6  (PRN 28)", "OBJECT_ID": "2023-009A", "EPOCH": "2025-12-10T05:50:57.225696", "MEAN_MOTION": 2.00555847, "ECCENTRICITY": 0.00036975, "INCLINATION": 55.1051, "RA_OF_ASC_NODE": 155.9432, "ARG_OF_PERICENTER": 357.7706, "MEAN_ANOMALY": 183.2285, "EPHEMERIS_TYPE": 0, "CLASSIFICATION_TYPE": "U", "NORAD_CAT_ID": 55268, "ELEMENT_SET_NO": 999, "REV_AT_EPOCH": 2145, "BSTAR": 0, "MEAN_MOTION_DOT": 7.5e-07, "MEAN_MOTION_DDOT": 0}, "tle": {"line1": "1 55268U 23009A   25344.24371789  .00000075  00000+0  00000+0 0  9999", "line2": "2 55268  55.1051 155.9432 0003697 357.7706 183.2285  2.00555847 21451"}}, "geometry": {"type": "Point", "coordinates": [138.15810723081734, -23.547480114946065]}}, {"type": "Feature", "properties": {"norad_id": 56564, "name": "BEIDOU-3 G4 (C62)", "group": "gnss", "lat": -0.8207480684332362, "lon": -138.06741695248718, "alt_km": 35777.84348900746, "timestamp": "2025-12-11T22:43:47.511743+00:00", "meta": {"OBJECT_NAME": "BEIDOU-3 G4 (C62)", "OBJECT_ID": "2023-066A", "EPOCH": "2025-12-11T15:04:47.347392", "MEAN_MOTION": 1.00271504, "ECCENTRICITY": 0.00029225, "INCLINATION": 0.817, "RA_OF_ASC_NODE": 301.9718, "ARG_OF_PERICENTER": 233.2703, "MEAN_ANOMALY": 291.6073, "EPHEMERIS_TYPE": 0, "CLASSIFICATION_TYPE": "U", "NORAD_CAT_ID": 56564, "ELEMENT_SET_NO": 999, "REV_AT_EPOCH": 951, "BSTAR": 0, "MEAN_MOTION_DOT": -1.04e-06, "MEAN_MOTION_DDOT": 0}, "tle": {"line1": "1 56564U 23066A   25345.62832578 -.00000104  00000+0  00000+0 0  9997", "line2": "2 56564   0.8170 301.9718 0002922 233.2703 291.6073  1.00271504  9511"}}, "geometry": {"type": "Point", "coordinates": [-138.06741695248718, -0.8207480684332362]}}, {"type": "Feature", "properties": {"norad_id": 56759, "name": "NVS-01 (IRNSS-1J)", "group": "gnss", "lat": -2.2929141962116826, "lon": -168.86038875124967, "alt_km": 35775.83027879398, "timestamp": "2025-12-11T22:43:47.511755+00:00", "meta": {"OBJECT_NAME": "NVS-01 (IRNSS-1J)", "OBJECT_ID": "2023-076A", "EPOCH": "2025-12-11T07:16:43.093920", "MEAN_MOTION": 1.00264146, "ECCENTRICITY": 0.00085731, "INCLINATION": 2.6214, "RA_OF_ASC_NODE": 251.6483, "ARG_OF_PERICENTER": 8.8926, "MEAN_ANOMALY": 58.2894, "EPHEMERIS_TYPE": 0, "CLASSIFICATION_TYPE": "U", "NORAD_CAT_ID": 56759, "ELEMENT_SET_NO": 999, "REV_AT_EPOCH": 923, "BSTAR": 0, "MEAN_MOTION_DOT": -3.3e-06, "MEAN_MOTION_DDOT": 0}, "tle": {"line1": "1 56759U 23076A   25345.30327655 -.00000330  00000+0  00000+0 0  9995", "line2": "2 56759   2.6214 251.6483 0008573   8.8926  58.2894  1.00264146  9238"}}, "geometry": {"type": "Point", "coordinates": [-168.86038875124967, -2.2929141962116826]}}, {"type": "Feature", "properties": {"norad_id": 57517, "name": "COSMOS 2569 (703K)", "group": "gnss", "lat": -48.7676088011199, "lon": 47.14628733233864, "alt_km": 19109.889269116804, "timestamp": "2025-12-11T22:43:47.511766+00:00", "meta": {"OBJECT_NAME": "COSMOS 2569 (703K)", "OBJECT_ID": "2023-114A", "EPOCH": "2025-12-11T01:57:11.687328", "MEAN_MOTION": 2.13103934, "ECCENTRICITY": 0.0010485, "INCLINATION": 65.1933, "RA_OF_ASC_NODE": 78.9695, "ARG_OF_PERICENTER": 287.0346, "MEAN_ANOMALY": 72.8683, "EPHEMERIS_TYPE": 0, "CLASSIFICATION_TYPE": "U", "NORAD_CAT_ID": 57517, "ELEMENT_SET_NO": 999, "REV_AT_EPOCH": 1825, "BSTAR": 0, "MEAN_MOTION_DOT": -2.7e-07, "MEAN_MOTION_DDOT": 0}, "tle": {"line1": "1 57517U 23114A   25345.08138527 -.00000027  00000+0  00000+0 0  9997", "line2": "2 57517  65.1933  78.9695 0010485 287.0346  72.8683  2.13103934 18252"}}, "geometry": {"type": "Point", "coordinates": [47.14628733233864, -48.7676088011199]}}, {"type": "Feature", "properties": {"norad_id": 58654, "name": "BEIDOU-3 M28 (C50)", "group": "gnss", "lat": 25.01993694089045, "lon": 87.27160303359143, "alt_km": 21528.5950261727, "timestamp": "2025-12-11T22:43:47.511780+00:00", "meta": {"OBJECT_NAME": "BEIDOU-3 M28 (C50)", "OBJECT_ID": "2023-207A", "EPOCH": "2025-12-10T19:51:07.805952", "MEAN_MOTION": 1.86229697, "ECCENTRICITY": 0.00023543, "INCLINATION": 55.5828, "RA_OF_ASC_NODE": 68.6661, "ARG_OF_PERICENTER": 269.4416, "MEAN_ANOMALY": 90.5533, "EPHEMERIS_TYPE": 0, "CLASSIFICATION_TYPE": "U", "NORAD_CAT_ID": 58654, "ELEMENT_SET_NO": 999, "REV_AT_EPOCH": 1333, "BSTAR": 0, "MEAN_MOTION_DOT": -6e-07, "MEAN_MOTION_DDOT": 0}, "tle": {"line1": "1 58654U 23207A   25344.82717368 -.00000060  00000+0  00000+0 0  9997", "line2": "2 58654  55.5828  68.6661 0002354 269.4416  90.5533  1.86229697 13337"}}, "geometry": {"type": "Point", "coordinates": [87.27160303359143, 25.01993694089045]}}, {"type": "Feature", "properties": {"norad_id": 58655, "name": "BEIDOU-3 M26 (C48)", "group": "gnss", "lat": 11.132830220295716, "lon": -119.1207315750306, "alt_km": 21526.504123135186, "timestamp": "2025-12-11T22:43:47.511791+00:00", "meta": {"OBJECT_NAME": "BEIDOU-3 M26 (C48)", "OBJECT_ID": "2023-207B", "EPOCH": "2025-12-09T13:13:20.106624", "MEAN_MOTION": 1.86231165, "ECCENTRICITY": 0.00037, "INCLINATION": 55.5839, "RA_OF_ASC_NODE": 68.6957, "ARG_OF_PERICENTER": 254.5617, "MEAN_ANOMALY": 105.42, "EPHEMERIS_TYPE": 0, "CLASSIFICATION_TYPE": "U", "NORAD_CAT_ID": 58655, "ELEMENT_SET_NO": 999, "REV_AT_EPOCH": 1329, "BSTAR": 0, "MEAN_MOTION_DOT": -5.1e-07, "MEAN_MOTION_DDOT": 0}, "tle": {"line1": "1 58655U 23207B   25343.55092716 -.00000051  00000+0  00000+0 0  9990", "line2": "2 58655  55.5839  68.6957 0003700 254.5617 105.4200  1.86231165 13297"}}, "geometry": {"type": "Point", "coordinates": [-119.1207315750306, 11.132830220295716]}}]}